{
    "links": {
        "self": "http://www.neowsapp.com/rest/v1/neo/54016352?api_key=iIulBulltgU6a56xZRHN4H3l9WmuAYTsLGpBGhQ2"
    },
    "id": "54016352",
    "neo_reference_id": "54016352",
    "name": "(2020 FG4)",
    "designation": "2020 FG4",
    "nasa_jpl_url": "http://ssd.jpl.nasa.gov/sbdb.cgi?sstr=54016352",
    "absolute_magnitude_h": 27.096,
    "estimated_diameter": {
        "kilometers": {
            "estimated_diameter_min": 0.0101240662,
            "estimated_diameter_max": 0.0226381002
        },
        "meters": {
            "estimated_diameter_min": 10.1240662073,
            "estimated_diameter_max": 22.6381002483
        },
        "miles": {
            "estimated_diameter_min": 0.0062908011,
            "estimated_diameter_max": 0.014066659
        },
        "feet": {
            "estimated_diameter_min": 33.2154413756,
            "estimated_diameter_max": 74.2719848186
        }
    },
    "is_potentially_hazardous_asteroid": false,
    "close_approach_data": [
        {
            "close_approach_date": "2015-11-22",
            "close_approach_date_full": "2015-Nov-22 00:35",
            "epoch_date_close_approach": 1448152500000,
            "relative_velocity": {
                "kilometers_per_second": "4.2963962127",
                "kilometers_per_hour": "15467.0263655796",
                "miles_per_hour": "9610.6086881014"
            },
            "miss_distance": {
                "astronomical": "0.1449313596",
                "lunar": "56.3782988844",
                "kilometers": "21681422.692364052",
                "miles": "13472211.3462938376"
            },
            "orbiting_body": "Venus"
        },
        {
            "close_approach_date": "2020-03-19",
            "close_approach_date_full": "2020-Mar-19 11:03",
            "epoch_date_close_approach": 1584615780000,
            "relative_velocity": {
                "kilometers_per_second": "12.2580314111",
                "kilometers_per_hour": "44128.9130798534",
                "miles_per_hour": "27419.9904634234"
            },
            "miss_distance": {
                "astronomical": "0.0038064779",
                "lunar": "1.4807199031",
                "kilometers": "569440.986042073",
                "miles": "353834.2212156874"
            },
            "orbiting_body": "Moon"
        },
        {
            "close_approach_date": "2020-03-19",
            "close_approach_date_full": "2020-Mar-19 13:35",
            "epoch_date_close_approach": 1584624900000,
            "relative_velocity": {
                "kilometers_per_second": "11.3224043668",
                "kilometers_per_hour": "40760.6557205189",
                "miles_per_hour": "25327.0863281191"
            },
            "miss_distance": {
                "astronomical": "0.0012616936",
                "lunar": "0.4907988104",
                "kilometers": "188746.675152632",
                "miles": "117281.7455130416"
            },
            "orbiting_body": "Earth"
        }
    ],
    "orbital_data": {
        "orbit_id": "1",
        "orbit_determination_date": "2020-03-25 07:12:06",
        "first_observation_date": "2020-03-23",
        "last_observation_date": "2020-03-25",
        "data_arc_in_days": 2,
        "observations_used": 27,
        "orbit_uncertainty": "8",
        "minimum_orbit_intersection": "6.94675E-5",
        "jupiter_tisserand_invariant": "4.037",
        "epoch_osculation": "2458932.5",
        "eccentricity": ".4999265069337822",
        "semi_major_axis": "1.708836947876139",
        "inclination": "2.684138106078488",
        "ascending_node_longitude": "178.8877797930873",
        "orbital_period": "815.9233563763381",
        "perihelion_distance": ".8545440616050354",
        "perihelion_argument": "305.1644655820726",
        "aphelion_distance": "2.563129834147243",
        "perihelion_time": "2458888.009937139455",
        "mean_anomaly": "19.6298126590321",
        "mean_motion": ".4412179124260207",
        "equinox": "J2000",
        "orbit_class": {
            "orbit_class_type": "APO",
            "orbit_class_description": "Near-Earth asteroid orbits which cross the Earth’s orbit similar to that of 1862 Apollo",
            "orbit_class_range": "a (semi-major axis) > 1.0 AU; q (perihelion) < 1.017 AU"
        }
    },
    "is_sentry_object": false
}